H1 CPF  1  MCC 2022  3 30 15  5891 larets
H2  0304206 5557    27944 2022 03 29 23 55 00 2022 04 04 00 07 00   180 1 1  0 0 0
H9
10 0 59672 68820.000000 0      1970439.610     -6317102.250      2437167.285
10 0 59672 69000.000000 0      1788405.853     -6726776.203      1144353.257
10 0 59672 69180.000000 0      1533543.345     -6884822.844      -190604.624
10 0 59672 69360.000000 0      1221914.913     -6783955.001     -1518559.234
10 0 59672 69540.000000 0       871722.284     -6426919.472     -2790725.090
10 0 59672 69720.000000 0       502351.831     -5826377.031     -3960529.906
10 0 59672 69900.000000 0       133394.191     -5004370.108     -4985347.858
10 0 59672 70080.000000 0      -216316.878     -3991415.300     -5828041.479
10 0 59672 70260.000000 0      -529596.178     -2825280.508     -6458258.200
10 0 59672 70440.000000 0      -791688.981     -1549512.063     -6853448.685
10 0 59672 70620.000000 0      -990914.194      -211781.485     -6999590.780
10 0 59672 70800.000000 0     -1119148.071      1137885.937     -6891617.857
10 0 59672 70980.000000 0     -1172135.219      2448943.208     -6533553.127
10 0 59672 71160.000000 0     -1149620.836      3672165.130     -5938359.899
10 0 59672 71340.000000 0     -1055301.924      4761460.189     -5127510.532
10 0 59672 71520.000000 0      -896598.886      5675596.743     -4130272.238
10 0 59672 71700.000000 0      -684255.674      6379784.594     -2982715.696
10 0 59672 71880.000000 0      -431780.292      6847044.447     -1726465.258
10 0 59672 72060.000000 0      -154747.752      7059304.481      -407223.132
10 0 59672 72240.000000 0       130004.814      7008163.582       926887.445
10 0 59672 72420.000000 0       405252.974      6695273.119      2227099.407
10 0 59672 72600.000000 0       654280.188      6132302.923      3445820.932
10 0 59672 72780.000000 0       861746.866      5340497.616      4538407.957
10 0 59672 72960.000000 0      1014494.771      4349849.533      5464826.983
10 0 59672 73140.000000 0      1102239.240      3197911.876      6191128.845
10 0 59672 73320.000000 0      1118122.223      1928336.468      6690675.239
10 0 59672 73500.000000 0      1059097.065       589192.255      6945097.575
10 0 59672 73680.000000 0       926131.568      -768869.113      6944955.067
10 0 59672 73860.000000 0       724220.241     -2094531.816      6690086.031
10 0 59672 74040.000000 0       462201.838     -3337765.716      6189641.237
10 0 59672 74220.000000 0       152386.644     -4451738.993      5461785.393
10 0 59672 74400.000000 0      -189990.125     -5394616.716      4533074.087
10 0 59672 74580.000000 0      -547470.111     -6131193.720      3437527.177
10 0 59672 74760.000000 0      -901208.337     -6634291.903      2215397.225
10 0 59672 74940.000000 0     -1231901.140     -6885839.020       911673.505
10 0 59672 75120.000000 0     -1520760.591     -6877577.168      -425620.375
10 0 59672 75300.000000 0     -1750481.472     -6611348.749     -1747267.761
10 0 59672 75480.000000 0     -1906143.395     -6098945.640     -3004741.223
10 0 59672 75660.000000 0     -1976005.138     -5361538.781     -4152039.585
10 0 59672 75840.000000 0     -1952148.703     -4428721.030     -5147395.064
10 0 59672 76020.000000 0     -1830941.794     -3337229.732     -5954773.987
10 0 59672 76200.000000 0     -1613303.471     -2129427.670     -6545126.876
10 0 59672 76380.000000 0     -1304765.345      -851613.476     -6897357.540
10 0 59672 76560.000000 0      -915332.701       447762.288     -6998993.036
10 0 59672 76740.000000 0      -459154.006      1719908.117     -6846558.310
10 0 59672 76920.000000 0        45989.803      2917476.965     -6445662.294
10 0 59672 77100.000000 0       579360.228      3996283.945     -5810801.689
10 0 59672 77280.000000 0      1118086.157      4916911.518     -4964878.084
10 0 59672 77460.000000 0      1638109.363      5646150.478     -3938434.202
10 0 59672 77640.000000 0      2115220.833      6158229.689     -2768616.267
10 0 59672 77820.000000 0      2526146.400      6435779.036     -1497882.516
10 0 59672 78000.000000 0      2849634.543      6470479.764      -172489.239
10 0 59672 78180.000000 0      3067490.825      6263355.896      1159196.434
10 0 59672 78360.000000 0      3165504.078      5824685.397      2448483.407
10 0 59672 78540.000000 0      3134216.374      5173535.109      3648169.048
10 0 59672 78720.000000 0      2969497.132      4336936.826      4714301.000
10 0 59672 78900.000000 0      2672886.326      3348743.650      5607813.137
10 0 59672 79080.000000 0      2251685.712      2248223.969      6295957.440
10 0 59672 79260.000000 0      1718809.310      1078474.583      6753487.779
10 0 59672 79440.000000 0      1092391.205      -115286.664      6963566.911
10 0 59672 79620.000000 0       395166.855     -1287474.329      6918370.771
10 0 59672 79800.000000 0      -346351.725     -2393882.155      6619386.113
10 0 59672 79980.000000 0     -1102884.679     -3393364.984      6077380.900
10 0 59672 80160.000000 0     -1843536.314     -4249391.363      5312045.967
10 0 59672 80340.000000 0     -2537056.173     -4931417.563      4351326.645
10 0 59672 80520.000000 0     -3153174.383     -5416039.938      3230440.876
10 0 59672 80700.000000 0     -3663941.658     -5687860.669      1990592.353
10 0 59672 80880.000000 0     -4045003.892     -5740018.557       677431.639
10 0 59672 81060.000000 0     -4276751.335     -5574359.189      -660674.491
10 0 59672 81240.000000 0     -4345279.096     -5201230.182     -1974493.580
10 0 59672 81420.000000 0     -4243102.987     -4638907.330     -3215812.068
10 0 59672 81600.000000 0     -3969591.404     -3912685.606     -4339256.667
10 0 59672 81780.000000 0     -3531097.839     -3053698.241     -5303967.007
10 0 59672 81960.000000 0     -2940799.007     -2097534.465     -6075056.357
10 0 59672 82140.000000 0     -2218256.127     -1082729.287     -6624813.935
10 0 59672 82320.000000 0     -1388725.040       -49196.235     -6933621.926
10 0 59672 82500.000000 0      -482250.873       963329.769     -6990570.363
10 0 59672 82680.000000 0       467413.965      1916784.519     -6793780.795
10 0 59672 82860.000000 0      1424039.898      2776164.718     -6350445.791
10 0 59672 83040.000000 0      2350271.106      3510783.453     -5676583.090
10 0 59672 83220.000000 0      3209054.013      4095352.409     -4796500.155
10 0 59672 83400.000000 0      3965098.900      4510859.188     -3741982.221
10 0 59672 83580.000000 0      4586327.279      4745210.991     -2551209.845
10 0 59672 83760.000000 0      5045242.922      4793609.135     -1267423.597
10 0 59672 83940.000000 0      5320160.691      4658632.467        62623.662
10 0 59672 84120.000000 0      5396226.316      4350018.233      1390374.909
10 0 59672 84300.000000 0      5266173.868      3884148.895      2667264.475
10 0 59672 84480.000000 0      4930780.007      3283262.203      3846531.733
10 0 59672 84660.000000 0      4398978.096      2574422.162      4884967.989
10 0 59672 84840.000000 0      3687633.914      1788307.625      5744516.235
10 0 59672 85020.000000 0      2820992.108       957882.481      6393667.727
10 0 59672 85200.000000 0      1829823.151       117006.284      6808597.920
10 0 59672 85380.000000 0       750315.627      -700945.904      6974019.096
10 0 59672 85560.000000 0      -377253.692     -1464409.323      6883737.034
10 0 59672 85740.000000 0     -1510027.966     -2144855.242      6540886.113
10 0 59672 85920.000000 0     -2604200.829     -2717869.031      5957838.649
10 0 59672 86100.000000 0     -3616717.244     -3164045.670      5155801.161
10 0 59672 86280.000000 0     -4507003.529     -3469679.171      4164089.075
10 0 59673    60.000000 0     -5238642.271     -3627206.753      3019078.211
10 0 59673   240.000000 0     -5780916.141     -3635388.108      1762875.601
10 0 59673   420.000000 0     -6110151.480     -3499211.380       441745.231
99
